[{"OBJECT_NAME":"GEESAT-3 06","OBJECT_ID":"2024-159F","EPOCH":"2026-03-09T22:12:27.756864","MEAN_MOTION":14.83812718,"ECCENTRICITY":0.00165501,"INCLINATION":49.9964,"RA_OF_ASC_NODE":183.6395,"ARG_OF_PERICENTER":57.3652,"MEAN_ANOMALY":302.8881,"EPHEMERIS_TYPE":0,"CLASSIFICATION_TYPE":"U","NORAD_CAT_ID":61016,"ELEMENT_SET_NO":999,"REV_AT_EPOCH":8202,"BSTAR":0.00040497457,"MEAN_MOTION_DOT":3.17e-5,"MEAN_MOTION_DDOT":0},{"OBJECT_NAME":"COSMOS 2251 DEB","OBJECT_ID":"1993-036AFF","EPOCH":"2026-03-07T21:27:04.277664","MEAN_MOTION":14.7829413,"ECCENTRICITY":0.00442802,"INCLINATION":74.0559,"RA_OF_ASC_NODE":139.3795,"ARG_OF_PERICENTER":168.7265,"MEAN_ANOMALY":312.5093,"EPHEMERIS_TYPE":0,"CLASSIFICATION_TYPE":"U","NORAD_CAT_ID":34976,"ELEMENT_SET_NO":999,"REV_AT_EPOCH":89531,"BSTAR":0.0012155618,"MEAN_MOTION_DOT":8.956e-5,"MEAN_MOTION_DDOT":0}]
